CTC2_L_00429001-01
1 56863U 24162LU  26037.47795139  .00000000  00000+0  00000-0 0  9995
2 56863  90.0000   0.0000 0000000   0.0000   0.0000 12.53473282    17
CTC2_L_00429001-02
1 56864U 24475QF  26037.47795139  .00000000  00000+0  00000-0 0  9993
2 56864  90.0000   0.0000 0000000   0.0000  90.0000 12.53473282    17
CTC2_L_00429001-03
1 56865U 24907UG  26037.47795139  .00000000  00000+0  00000-0 0  9994
2 56865  90.0000   0.0000 0000000   0.0000 180.0000 12.53473282    18
CTC2_L_00429001-04
1 56866U 26836RP  26037.47795139  .00000000  00000+0  00000-0 0  9998
2 56866  90.0000   0.0000 0000000   0.0000 270.0000 12.53473282    19
CTC2_L_00429002-01
1 56867U 23745SK  26037.47795139  .00000000  00000+0  00000-0 0  9995
2 56867  90.0000  12.0000 0000000   0.0000  12.0000 12.53473282    17
CTC2_L_00429002-02
1 56868U 24313LU  26037.47795139  .00000000  00000+0  00000-0 0  9998
2 56868  90.0000  12.0000 0000000   0.0000 102.0000 12.53473282    18
CTC2_L_00429002-03
1 56869U 23038PI  26037.47795139  .00000000  00000+0  00000-0 0  9992
2 56869  90.0000  12.0000 0000000   0.0000 192.0000 12.53473282    18
CTC2_L_00429002-04
1 56870U 25987WG  26037.47795139  .00000000  00000+0  00000-0 0  9999
2 56870  90.0000  12.0000 0000000   0.0000 282.0000 12.53473282    10
CTC2_L_00429003-01
1 56871U 25340KG  26037.47795139  .00000000  00000+0  00000-0 0  9993
2 56871  90.0000  24.0000 0000000   0.0000  24.0000 12.53473282    18
CTC2_L_00429003-02
1 56872U 25558NL  26037.47795139  .00000000  00000+0  00000-0 0  9995
2 56872  90.0000  24.0000 0000000   0.0000 114.0000 12.53473282    19
CTC2_L_00429003-03
1 56873U 23749ST  26037.47795139  .00000000  00000+0  00000-0 0  9996
2 56873  90.0000  24.0000 0000000   0.0000 204.0000 12.53473282    10
CTC2_L_00429003-04
1 56874U 25507KD  26037.47795139  .00000000  00000+0  00000-0 0  9991
2 56874  90.0000  24.0000 0000000   0.0000 294.0000 12.53473282    10
CTC2_L_00429004-01
1 56875U 23294CS  26037.47795139  .00000000  00000+0  00000-0 0  9993
2 56875  90.0000  36.0000 0000000   0.0000  36.0000 12.53473282    18
CTC2_L_00429004-02
1 56876U 25344YA  26037.47795139  .00000000  00000+0  00000-0 0  9992
2 56876  90.0000  36.0000 0000000   0.0000 126.0000 12.53473282    19
CTC2_L_00429004-03
1 56877U 26981BB  26037.47795139  .00000000  00000+0  00000-0 0  9991
2 56877  90.0000  36.0000 0000000   0.0000 216.0000 12.53473282    10
CTC2_L_00429004-04
1 56878U 25671HT  26037.47795139  .00000000  00000+0  00000-0 0  9997
2 56878  90.0000  36.0000 0000000   0.0000 306.0000 12.53473282    11
CTC2_L_00429005-01
1 56879U 24388AU  26037.47795139  .00000000  00000+0  00000-0 0  9992
2 56879  90.0000  48.0000 0000000   0.0000  48.0000 12.53473282    18
CTC2_L_00429005-02
1 56880U 26227ZO  26037.47795139  .00000000  00000+0  00000-0 0  9998
2 56880  90.0000  48.0000 0000000   0.0000 138.0000 12.53473282    10
CTC2_L_00429005-03
1 56881U 22430NB  26037.47795139  .00000000  00000+0  00000-0 0  9991
2 56881  90.0000  48.0000 0000000   0.0000 228.0000 12.53473282    11
CTC2_L_00429005-04
1 56882U 26340ZL  26037.47795139  .00000000  00000+0  00000-0 0  9996
2 56882  90.0000  48.0000 0000000   0.0000 318.0000 12.53473282    12
CTC2_L_00429006-01
1 56883U 24672UO  26037.47795139  .00000000  00000+0  00000-0 0  9993
2 56883  90.0000  60.0000 0000000   0.0000  60.0000 12.53473282    11
CTC2_L_00429006-02
1 56884U 26750JL  26037.47795139  .00000000  00000+0  00000-0 0  9993
2 56884  90.0000  60.0000 0000000   0.0000 150.0000 12.53473282    12
CTC2_L_00429006-03
1 56885U 24304YZ  26037.47795139  .00000000  00000+0  00000-0 0  9997
2 56885  90.0000  60.0000 0000000   0.0000 240.0000 12.53473282    13
CTC2_L_00429006-04
1 56886U 22763DB  26037.47795139  .00000000  00000+0  00000-0 0  9995
2 56886  90.0000  60.0000 0000000   0.0000 330.0000 12.53473282    14
CTC2_L_00429007-01
1 56887U 24733UN  26037.47795139  .00000000  00000+0  00000-0 0  9995
2 56887  90.0000  72.0000 0000000   0.0000  72.0000 12.53473282    11
CTC2_L_00429007-02
1 56888U 26387PY  26037.47795139  .00000000  00000+0  00000-0 0  9993
2 56888  90.0000  72.0000 0000000   0.0000 162.0000 12.53473282    12
CTC2_L_00429007-03
1 56889U 24378UZ  26037.47795139  .00000000  00000+0  00000-0 0  9992
2 56889  90.0000  72.0000 0000000   0.0000 252.0000 12.53473282    13
CTC2_L_00429007-04
1 56890U 24342GG  26037.47795139  .00000000  00000+0  00000-0 0  9995
2 56890  90.0000  72.0000 0000000   0.0000 342.0000 12.53473282    15
CTC2_L_00429008-01
1 56891U 25342DL  26037.47795139  .00000000  00000+0  00000-0 0  9997
2 56891  90.0000  84.0000 0000000   0.0000  84.0000 12.53473282    12
CTC2_L_00429008-02
1 56892U 24339LB  26037.47795139  .00000000  00000+0  00000-0 0  9993
2 56892  90.0000  84.0000 0000000   0.0000 174.0000 12.53473282    13
CTC2_L_00429008-03
1 56893U 22762AW  26037.47795139  .00000000  00000+0  00000-0 0  9992
2 56893  90.0000  84.0000 0000000   0.0000 264.0000 12.53473282    14
CTC2_L_00429008-04
1 56894U 26707HM  26037.47795139  .00000000  00000+0  00000-0 0  9996
2 56894  90.0000  84.0000 0000000   0.0000 354.0000 12.53473282    15
CTC2_L_00429009-01
1 56895U 22923TO  26037.47795139  .00000000  00000+0  00000-0 0  9993
2 56895  90.0000  96.0000 0000000   0.0000  96.0000 12.53473282    12
CTC2_L_00429009-02
1 56896U 23957JU  26037.47795139  .00000000  00000+0  00000-0 0  9992
2 56896  90.0000  96.0000 0000000   0.0000 186.0000 12.53473282    13
CTC2_L_00429009-03
1 56897U 24746FI  26037.47795139  .00000000  00000+0  00000-0 0  9990
2 56897  90.0000  96.0000 0000000   0.0000 276.0000 12.53473282    14
CTC2_L_00429009-04
1 56898U 26088ZU  26037.47795139  .00000000  00000+0  00000-0 0  9992
2 56898  90.0000  96.0000 0000000   0.0000   6.0000 12.53473282    16
CTC2_L_00429010-01
1 56899U 22063GJ  26037.47795139  .00000000  00000+0  00000-0 0  9992
2 56899  90.0000 108.0000 0000000   0.0000 108.0000 12.53473282    14
CTC2_L_00429010-02
1 56900U 24913PF  26037.47795139  .00000000  00000+0  00000-0 0  9991
2 56900  90.0000 108.0000 0000000   0.0000 198.0000 12.53473282    16
CTC2_L_00429010-03
1 56901U 25922BY  26037.47795139  .00000000  00000+0  00000-0 0  9993
2 56901  90.0000 108.0000 0000000   0.0000 288.0000 12.53473282    17
CTC2_L_00429010-04
1 56902U 26657RB  26037.47795139  .00000000  00000+0  00000-0 0  9990
2 56902  90.0000 108.0000 0000000   0.0000  18.0000 12.53473282    19
CTC2_L_00429011-01
1 56903U 25422EJ  26037.47795139  .00000000  00000+0  00000-0 0  9990
2 56903  90.0000 120.0000 0000000   0.0000 120.0000 12.53473282    18
CTC2_L_00429011-02
1 56904U 26483JR  26037.47795139  .00000000  00000+0  00000-0 0  9999
2 56904  90.0000 120.0000 0000000   0.0000 210.0000 12.53473282    19
CTC2_L_00429011-03
1 56905U 23252QC  26037.47795139  .00000000  00000+0  00000-0 0  9991
2 56905  90.0000 120.0000 0000000   0.0000 300.0000 12.53473282    10
CTC2_L_00429011-04
1 56906U 24654YC  26037.47795139  .00000000  00000+0  00000-0 0  9999
2 56906  90.0000 120.0000 0000000   0.0000  30.0000 12.53473282    11
CTC2_L_00429012-01
1 56907U 23103UV  26037.47795139  .00000000  00000+0  00000-0 0  9998
2 56907  90.0000 132.0000 0000000   0.0000 132.0000 12.53473282    18
CTC2_L_00429012-02
1 56908U 26623HB  26037.47795139  .00000000  00000+0  00000-0 0  9999
2 56908  90.0000 132.0000 0000000   0.0000 222.0000 12.53473282    19
CTC2_L_00429012-03
1 56909U 24555OM  26037.47795139  .00000000  00000+0  00000-0 0  9992
2 56909  90.0000 132.0000 0000000   0.0000 312.0000 12.53473282    10
CTC2_L_00429012-04
1 56910U 23181QS  26037.47795139  .00000000  00000+0  00000-0 0  9998
2 56910  90.0000 132.0000 0000000   0.0000  42.0000 12.53473282    12
CTC2_L_00429013-01
1 56911U 26679CT  26037.47795139  .00000000  00000+0  00000-0 0  9994
2 56911  90.0000 144.0000 0000000   0.0000 144.0000 12.53473282    19
CTC2_L_00429013-02
1 56912U 25833AJ  26037.47795139  .00000000  00000+0  00000-0 0  9996
2 56912  90.0000 144.0000 0000000   0.0000 234.0000 12.53473282    10
CTC2_L_00429013-03
1 56913U 24045AZ  26037.47795139  .00000000  00000+0  00000-0 0  9991
2 56913  90.0000 144.0000 0000000   0.0000 324.0000 12.53473282    11
CTC2_L_00429013-04
1 56914U 23282IL  26037.47795139  .00000000  00000+0  00000-0 0  9994
2 56914  90.0000 144.0000 0000000   0.0000  54.0000 12.53473282    12
CTC2_L_00429014-01
1 56915U 23714VD  26037.47795139  .00000000  00000+0  00000-0 0  9995
2 56915  90.0000 156.0000 0000000   0.0000 156.0000 12.53473282    19
CTC2_L_00429014-02
1 56916U 26178CI  26037.47795139  .00000000  00000+0  00000-0 0  9993
2 56916  90.0000 156.0000 0000000   0.0000 246.0000 12.53473282    10
CTC2_L_00429014-03
1 56917U 24144HN  26037.47795139  .00000000  00000+0  00000-0 0  9995
2 56917  90.0000 156.0000 0000000   0.0000 336.0000 12.53473282    11
CTC2_L_00429014-04
1 56918U 23873XJ  26037.47795139  .00000000  00000+0  00000-0 0  9994
2 56918  90.0000 156.0000 0000000   0.0000  66.0000 12.53473282    12
CTC2_L_00429015-01
1 56919U 25594DN  26037.47795139  .00000000  00000+0  00000-0 0  9997
2 56919  90.0000 168.0000 0000000   0.0000 168.0000 12.53473282    19
CTC2_L_00429015-02
1 56920U 25006WM  26037.47795139  .00000000  00000+0  00000-0 0  9997
2 56920  90.0000 168.0000 0000000   0.0000 258.0000 12.53473282    11
CTC2_L_00429015-03
1 56921U 24472LJ  26037.47795139  .00000000  00000+0  00000-0 0  9994
2 56921  90.0000 168.0000 0000000   0.0000 348.0000 12.53473282    12
CTC2_L_00429015-04
1 56922U 23508CH  26037.47795139  .00000000  00000+0  00000-0 0  9994
2 56922  90.0000 168.0000 0000000   0.0000  78.0000 12.53473282    13
CTC2_L_00429016-01
1 56923U 26615LD  26037.47795139  .00000000  00000+0  00000-0 0  9997
2 56923  90.0000 180.0000 0000000   0.0000 180.0000 12.53473282    12
CTC2_L_00429016-02
1 56924U 24504TL  26037.47795139  .00000000  00000+0  00000-0 0  9993
2 56924  90.0000 180.0000 0000000   0.0000 270.0000 12.53473282    13
